[
  {
    "CCSDS_OMM_VERS": "3.0",
    "COMMENT": "GENERATED VIA SPACE-TRACK.ORG API",
    "CREATION_DATE": "2013-04-04T05:42:25",
    "ORIGINATOR": "18 SPCS",
    "OBJECT_NAME": "IRIDIUM 33 DEB",
    "OBJECT_ID": "1997-051ZN",
    "CENTER_NAME": "EARTH",
    "REF_FRAME": "TEME",
    "TIME_SYSTEM": "UTC",
    "MEAN_ELEMENT_THEORY": "SGP4",
    "EPOCH": "2013-03-26T12:02:50.824032",
    "MEAN_MOTION": "15.43886195",
    "ECCENTRICITY": "0.00190740",
    "INCLINATION": "86.2956",
    "RA_OF_ASC_NODE": "168.1649",
    "ARG_OF_PERICENTER": "217.0732",
    "MEAN_ANOMALY": "175.7795",
    "EPHEMERIS_TYPE": "0",
    "CLASSIFICATION_TYPE": "U",
    "NORAD_CAT_ID": "38238",
    "ELEMENT_SET_NO": "999",
    "REV_AT_EPOCH": "7175",
    "BSTAR": "0.01943000000000",
    "MEAN_MOTION_DOT": "0.00967041",
    "MEAN_MOTION_DDOT": "0.0000000000000",
    "SEMIMAJOR_AXIS": "6812.794",
    "PERIOD": "93.271",
    "APOAPSIS": "447.653",
    "PERIAPSIS": "421.664",
    "OBJECT_TYPE": "DEBRIS",
    "RCS_SIZE": "SMALL",
    "COUNTRY_CODE": "US",
    "LAUNCH_DATE": "1997-09-14",
    "SITE": "TTMTR",
    "DECAY_DATE": "2013-04-10",
    "FILE": "1465273",
    "GP_ID": "92583837",
    "TLE_LINE0": "0 IRIDIUM 33 DEB",
    "TLE_LINE1": "1 38238U 97051ZN  13085.50197713  .00967041  00000-0  19430-1 0  9991",
    "TLE_LINE2": "2 38238 086.2956 168.1649 0019074 217.0732 175.7795 15.43886195 71751"
  },
  {
    "CCSDS_OMM_VERS": "3.0",
    "COMMENT": "GENERATED VIA SPACE-TRACK.ORG API",
    "CREATION_DATE": "2015-04-02T11:31:05",
    "ORIGINATOR": "18 SPCS",
    "OBJECT_NAME": "IRIDIUM 33 DEB",
    "OBJECT_ID": "1997-051ZP",
    "CENTER_NAME": "EARTH",
    "REF_FRAME": "TEME",
    "TIME_SYSTEM": "UTC",
    "MEAN_ELEMENT_THEORY": "SGP4",
    "EPOCH": "2015-01-25T09:05:44.700575",
    "MEAN_MOTION": "15.22873873",
    "ECCENTRICITY": "0.00135310",
    "INCLINATION": "86.3646",
    "RA_OF_ASC_NODE": "256.7863",
    "ARG_OF_PERICENTER": "41.0375",
    "MEAN_ANOMALY": "298.5753",
    "EPHEMERIS_TYPE": "0",
    "CLASSIFICATION_TYPE": "U",
    "NORAD_CAT_ID": "38239",
    "ELEMENT_SET_NO": "999",
    "REV_AT_EPOCH": "21219",
    "BSTAR": "0.00945680000000",
    "MEAN_MOTION_DOT": "0.00228519",
    "MEAN_MOTION_DDOT": "0.0000000000000",
    "SEMIMAJOR_AXIS": "6875.314",
    "PERIOD": "94.558",
    "APOAPSIS": "506.482",
    "PERIAPSIS": "487.876",
    "OBJECT_TYPE": "DEBRIS",
    "RCS_SIZE": "SMALL",
    "COUNTRY_CODE": "US",
    "LAUNCH_DATE": "1997-09-14",
    "SITE": "TTMTR",
    "DECAY_DATE": "2015-03-14",
    "FILE": "1849937",
    "GP_ID": "98762615",
    "TLE_LINE0": "0 IRIDIUM 33 DEB",
    "TLE_LINE1": "1 38239U 97051ZP  15025.37898959  .00228519  00000-0  94568-2 0  9999",
    "TLE_LINE2": "2 38239 086.3646 256.7863 0013531 041.0375 298.5753 15.22873873212190"
  },
  {
    "CCSDS_OMM_VERS": "3.0",
    "COMMENT": "GENERATED VIA SPACE-TRACK.ORG API",
    "CREATION_DATE": "2014-10-12T17:01:00",
    "ORIGINATOR": "18 SPCS",
    "OBJECT_NAME": "IRIDIUM 33 DEB",
    "OBJECT_ID": "1997-051ZQ",
    "CENTER_NAME": "EARTH",
    "REF_FRAME": "TEME",
    "TIME_SYSTEM": "UTC",
    "MEAN_ELEMENT_THEORY": "SGP4",
    "EPOCH": "2014-10-06T18:20:10.324896",
    "MEAN_MOTION": "15.42945197",
    "ECCENTRICITY": "0.00167340",
    "INCLINATION": "86.2140",
    "RA_OF_ASC_NODE": "283.5234",
    "ARG_OF_PERICENTER": "105.3056",
    "MEAN_ANOMALY": "269.2632",
    "EPHEMERIS_TYPE": "0",
    "CLASSIFICATION_TYPE": "U",
    "NORAD_CAT_ID": "38240",
    "ELEMENT_SET_NO": "999",
    "REV_AT_EPOCH": "27232",
    "BSTAR": "0.02964900000000",
    "MEAN_MOTION_DOT": "0.01437963",
    "MEAN_MOTION_DDOT": "0.0000000000000",
    "SEMIMAJOR_AXIS": "6815.563",
    "PERIOD": "93.328",
    "APOAPSIS": "448.833",
    "PERIAPSIS": "426.023",
    "OBJECT_TYPE": "DEBRIS",
    "RCS_SIZE": "SMALL",
    "COUNTRY_CODE": "US",
    "LAUNCH_DATE": "1997-09-14",
    "SITE": "TTMTR",
    "DECAY_DATE": "2014-10-16",
    "FILE": "1761262",
    "GP_ID": "97235225",
    "TLE_LINE0": "0 IRIDIUM 33 DEB",
    "TLE_LINE1": "1 38240U 97051ZQ  14279.76400839  .01437963  00000-0  29649-1 0  9993",
    "TLE_LINE2": "2 38240 086.2140 283.5234 0016734 105.3056 269.2632 15.42945197272321"
  },
  {
    "CCSDS_OMM_VERS": "3.0",
    "COMMENT": "GENERATED VIA SPACE-TRACK.ORG API",
    "CREATION_DATE": "2025-11-26T18:00:39",
    "ORIGINATOR": "18 SPCS",
    "OBJECT_NAME": "IRIDIUM 33 DEB",
    "OBJECT_ID": "1997-051ZR",
    "CENTER_NAME": "EARTH",
    "REF_FRAME": "TEME",
    "TIME_SYSTEM": "UTC",
    "MEAN_ELEMENT_THEORY": "SGP4",
    "EPOCH": "2025-11-26T08:08:22.050240",
    "MEAN_MOTION": "14.54715615",
    "ECCENTRICITY": "0.00055681",
    "INCLINATION": "86.3231",
    "RA_OF_ASC_NODE": "357.8327",
    "ARG_OF_PERICENTER": "108.3849",
    "MEAN_ANOMALY": "251.7964",
    "EPHEMERIS_TYPE": "0",
    "CLASSIFICATION_TYPE": "U",
    "NORAD_CAT_ID": "38241",
    "ELEMENT_SET_NO": "999",
    "REV_AT_EPOCH": "59962",
    "BSTAR": "0.00078935599000",
    "MEAN_MOTION_DOT": "0.00003398",
    "MEAN_MOTION_DDOT": "0.0000000000000",
    "SEMIMAJOR_AXIS": "7088.425",
    "PERIOD": "98.988",
    "APOAPSIS": "714.237",
    "PERIAPSIS": "706.343",
    "OBJECT_TYPE": "DEBRIS",
    "RCS_SIZE": "SMALL",
    "COUNTRY_CODE": "US",
    "LAUNCH_DATE": "1997-09-14",
    "SITE": "TTMTR",
    "DECAY_DATE": null,
    "FILE": "4903404",
    "GP_ID": "303655035",
    "TLE_LINE0": "0 IRIDIUM 33 DEB",
    "TLE_LINE1": "1 38241U 97051ZR  25330.33914410  .00003398  00000-0  78936-3 0  9997",
    "TLE_LINE2": "2 38241  86.3231 357.8327 0005568 108.3849 251.7964 14.54715615599629"
  },
  {
    "CCSDS_OMM_VERS": "3.0",
    "COMMENT": "GENERATED VIA SPACE-TRACK.ORG API",
    "CREATION_DATE": "2014-03-27T11:50:23",
    "ORIGINATOR": "18 SPCS",
    "OBJECT_NAME": "IRIDIUM 33 DEB",
    "OBJECT_ID": "1997-051ZS",
    "CENTER_NAME": "EARTH",
    "REF_FRAME": "TEME",
    "TIME_SYSTEM": "UTC",
    "MEAN_ELEMENT_THEORY": "SGP4",
    "EPOCH": "2014-03-08T06:40:01.592544",
    "MEAN_MOTION": "15.12906603",
    "ECCENTRICITY": "0.00448940",
    "INCLINATION": "86.3252",
    "RA_OF_ASC_NODE": "55.4395",
    "ARG_OF_PERICENTER": "127.8231",
    "MEAN_ANOMALY": "233.7166",
    "EPHEMERIS_TYPE": "0",
    "CLASSIFICATION_TYPE": "U",
    "NORAD_CAT_ID": "38242",
    "ELEMENT_SET_NO": "999",
    "REV_AT_EPOCH": "16635",
    "BSTAR": "0.04150600000000",
    "MEAN_MOTION_DOT": "0.00806594",
    "MEAN_MOTION_DDOT": "0.0000000000000",
    "SEMIMAJOR_AXIS": "6905.482",
    "PERIOD": "95.181",
    "APOAPSIS": "558.349",
    "PERIAPSIS": "496.346",
    "OBJECT_TYPE": "DEBRIS",
    "RCS_SIZE": "SMALL",
    "COUNTRY_CODE": "US",
    "LAUNCH_DATE": "1997-09-14",
    "SITE": "TTMTR",
    "DECAY_DATE": "2014-04-02",
    "FILE": "1655956",
    "GP_ID": "95519742",
    "TLE_LINE0": "0 IRIDIUM 33 DEB",
    "TLE_LINE1": "1 38242U 97051ZS  14067.27779621  .00806594  00000-0  41506-1 0  9999",
    "TLE_LINE2": "2 38242 086.3252 055.4395 0044894 127.8231 233.7166 15.12906603166353"
  },
  {
    "CCSDS_OMM_VERS": "3.0",
    "COMMENT": "GENERATED VIA SPACE-TRACK.ORG API",
    "CREATION_DATE": "2023-12-02T03:17:11",
    "ORIGINATOR": "18 SPCS",
    "OBJECT_NAME": "IRIDIUM 33 DEB",
    "OBJECT_ID": "1997-051ZT",
    "CENTER_NAME": "EARTH",
    "REF_FRAME": "TEME",
    "TIME_SYSTEM": "UTC",
    "MEAN_ELEMENT_THEORY": "SGP4",
    "EPOCH": "2023-12-01T04:34:16.405824",
    "MEAN_MOTION": "15.54535336",
    "ECCENTRICITY": "0.00123470",
    "INCLINATION": "86.2879",
    "RA_OF_ASC_NODE": "304.1161",
    "ARG_OF_PERICENTER": "76.7202",
    "MEAN_ANOMALY": "283.5436",
    "EPHEMERIS_TYPE": "0",
    "CLASSIFICATION_TYPE": "U",
    "NORAD_CAT_ID": "38243",
    "ELEMENT_SET_NO": "999",
    "REV_AT_EPOCH": "53746",
    "BSTAR": "0.01654500000000",
    "MEAN_MOTION_DOT": "0.01194501",
    "MEAN_MOTION_DDOT": "0.0000000000000",
    "SEMIMAJOR_AXIS": "6781.641",
    "PERIOD": "92.632",
    "APOAPSIS": "411.879",
    "PERIAPSIS": "395.132",
    "OBJECT_TYPE": "DEBRIS",
    "RCS_SIZE": "SMALL",
    "COUNTRY_CODE": "US",
    "LAUNCH_DATE": "1997-09-14",
    "SITE": "TTMTR",
    "DECAY_DATE": "2023-12-12",
    "FILE": "4116981",
    "GP_ID": "243599571",
    "TLE_LINE0": "0 IRIDIUM 33 DEB",
    "TLE_LINE1": "1 38243U 97051ZT  23335.19046766  .01194501  00000-0  16545-1 0  9990",
    "TLE_LINE2": "2 38243  86.2879 304.1161 0012347  76.7202 283.5436 15.54535336537465"
  },
  {
    "CCSDS_OMM_VERS": "3.0",
    "COMMENT": "GENERATED VIA SPACE-TRACK.ORG API",
    "CREATION_DATE": "2022-04-24T18:20:49",
    "ORIGINATOR": "18 SPCS",
    "OBJECT_NAME": "IRIDIUM 33 DEB",
    "OBJECT_ID": "1997-051ZU",
    "CENTER_NAME": "EARTH",
    "REF_FRAME": "TEME",
    "TIME_SYSTEM": "UTC",
    "MEAN_ELEMENT_THEORY": "SGP4",
    "EPOCH": "2022-04-24T11:23:41.558784",
    "MEAN_MOTION": "15.36650928",
    "ECCENTRICITY": "0.00069790",
    "INCLINATION": "86.4084",
    "RA_OF_ASC_NODE": "182.1634",
    "ARG_OF_PERICENTER": "248.1443",
    "MEAN_ANOMALY": "111.9067",
    "EPHEMERIS_TYPE": "0",
    "CLASSIFICATION_TYPE": "U",
    "NORAD_CAT_ID": "38244",
    "ELEMENT_SET_NO": "999",
    "REV_AT_EPOCH": "65687",
    "BSTAR": "0.00533610000000",
    "MEAN_MOTION_DOT": "0.00195593",
    "MEAN_MOTION_DDOT": "0.0000000000000",
    "SEMIMAJOR_AXIS": "6834.158",
    "PERIOD": "93.710",
    "APOAPSIS": "460.793",
    "PERIAPSIS": "451.254",
    "OBJECT_TYPE": "DEBRIS",
    "RCS_SIZE": "SMALL",
    "COUNTRY_CODE": "US",
    "LAUNCH_DATE": "1997-09-14",
    "SITE": "TTMTR",
    "DECAY_DATE": "2022-05-21",
    "FILE": "3414186",
    "GP_ID": "201926416",
    "TLE_LINE0": "0 IRIDIUM 33 DEB",
    "TLE_LINE1": "1 38244U 97051ZU  22114.47478656  .00195593  00000-0  53361-2 0  9992",
    "TLE_LINE2": "2 38244  86.4084 182.1634 0006979 248.1443 111.9067 15.36650928656877"
  }
]